{
  "links" : {
    "next" : "https://api.nasa.gov/neo/rest/v1/neo/browse?page=32&size=20&api_key=jqAGvNAwUIBu4fl9FSOjdm3V4F7hIglRzI6pdX9d",
    "prev" : "https://api.nasa.gov/neo/rest/v1/neo/browse?page=30&size=20&api_key=jqAGvNAwUIBu4fl9FSOjdm3V4F7hIglRzI6pdX9d",
    "self" : "https://api.nasa.gov/neo/rest/v1/neo/browse?page=31&size=20&api_key=jqAGvNAwUIBu4fl9FSOjdm3V4F7hIglRzI6pdX9d"
  },
  "page" : {
    "size" : 20,
    "total_elements" : 20750,
    "total_pages" : 1038,
    "number" : 31
  },
  "near_earth_objects" : [ {
    "links" : {
      "self" : "https://api.nasa.gov/neo/rest/v1/neo/3373684?api_key=jqAGvNAwUIBu4fl9FSOjdm3V4F7hIglRzI6pdX9d"
    },
    "neo_reference_id" : "3373684",
    "name" : "(2007 GT3)",
    "designation" : "2007 GT3",
    "nasa_jpl_url" : "http://ssd.jpl.nasa.gov/sbdb.cgi?sstr=3373684",
    "absolute_magnitude_h" : 19.7,
    "estimated_diameter" : {
      "kilometers" : {
        "estimated_diameter_min" : 0.3051792326,
        "estimated_diameter_max" : 0.6824015094
      },
      "meters" : {
        "estimated_diameter_min" : 305.1792325939,
        "estimated_diameter_max" : 682.4015094011
      },
      "miles" : {
        "estimated_diameter_min" : 0.1896295249,
        "estimated_diameter_max" : 0.4240245083
      },
      "feet" : {
        "estimated_diameter_min" : 1001.2442334633,
        "estimated_diameter_max" : 2238.8501681036
      }
    },
    "is_potentially_hazardous_asteroid" : false,
    "close_approach_data" : [ {
      "close_approach_date" : "2007-04-27",
      "epoch_date_close_approach" : 1177657200000,
      "relative_velocity" : {
        "kilometers_per_second" : "34.0902012919",
        "kilometers_per_hour" : "122724.7246509271",
        "miles_per_hour" : "76256.3712699053"
      },
      "miss_distance" : {
        "astronomical" : "0.1865801985",
        "lunar" : "72.5796966553",
        "kilometers" : "27912000",
        "miles" : "17343712"
      },
      "orbiting_body" : "Earth"
    } ],
    "orbital_data" : {
      "orbit_id" : "10",
      "orbit_determination_date" : "2017-04-06 09:06:36",
      "first_observation_date" : "2007-04-11",
      "last_observation_date" : "2007-04-24",
      "data_arc_in_days" : 13,
      "observations_used" : 31,
      "orbit_uncertainty" : "8",
      "minimum_orbit_intersection" : ".126955",
      "jupiter_tisserand_invariant" : "2.994",
      "epoch_osculation" : "2454205.5",
      "eccentricity" : ".9393468206373567",
      "semi_major_axis" : "1.99338848677099",
      "inclination" : "25.42468440613601",
      "ascending_node_longitude" : "15.74571849615213",
      "orbital_period" : "1027.98397649971",
      "perihelion_distance" : ".1209053494275489",
      "perihelion_argument" : "341.8943773754403",
      "aphelion_distance" : "3.865871624114432",
      "perihelion_time" : "2454257.246209881923",
      "mean_anomaly" : "341.8784767240022",
      "mean_motion" : ".3502000111186575",
      "equinox" : "J2000",
      "orbit_class" : {
        "orbit_class_type" : "APO",
        "orbit_class_range" : "a (semi-major axis) > 1.0 AU; q (perihelion) < 1.017 AU",
        "orbit_class_description" : "Near-Earth asteroid orbits which cross the Earth’s orbit similar to that of 1862 Apollo"
      }
    },
    "is_sentry_object" : false
  }, {
    "links" : {
      "self" : "https://api.nasa.gov/neo/rest/v1/neo/3373974?api_key=jqAGvNAwUIBu4fl9FSOjdm3V4F7hIglRzI6pdX9d"
    },
    "neo_reference_id" : "3373974",
    "name" : "(2007 GV5)",
    "designation" : "2007 GV5",
    "nasa_jpl_url" : "http://ssd.jpl.nasa.gov/sbdb.cgi?sstr=3373974",
    "absolute_magnitude_h" : 21.9,
    "estimated_diameter" : {
      "kilometers" : {
        "estimated_diameter_min" : 0.1108038821,
        "estimated_diameter_max" : 0.2477650126
      },
      "meters" : {
        "estimated_diameter_min" : 110.8038821264,
        "estimated_diameter_max" : 247.7650126055
      },
      "miles" : {
        "estimated_diameter_min" : 0.068850319,
        "estimated_diameter_max" : 0.1539539936
      },
      "feet" : {
        "estimated_diameter_min" : 363.5298086356,
        "estimated_diameter_max" : 812.8773639568
      }
    },
    "is_potentially_hazardous_asteroid" : false,
    "close_approach_data" : [ {
      "close_approach_date" : "2007-05-05",
      "epoch_date_close_approach" : 1178348400000,
      "relative_velocity" : {
        "kilometers_per_second" : "21.9481961235",
        "kilometers_per_hour" : "79013.5060444844",
        "miles_per_hour" : "49095.9199085853"
      },
      "miss_distance" : {
        "astronomical" : "0.2969955928",
        "lunar" : "115.5312805176",
        "kilometers" : "44429908",
        "miles" : "27607464"
      },
      "orbiting_body" : "Earth"
    } ],
    "orbital_data" : {
      "orbit_id" : "6",
      "orbit_determination_date" : "2017-04-06 09:06:35",
      "first_observation_date" : "2007-04-14",
      "last_observation_date" : "2007-04-16",
      "data_arc_in_days" : 2,
      "observations_used" : 26,
      "orbit_uncertainty" : "9",
      "minimum_orbit_intersection" : ".127485",
      "jupiter_tisserand_invariant" : "2.864",
      "epoch_osculation" : "2454205.5",
      "eccentricity" : ".8285429611330406",
      "semi_major_axis" : "2.41465751007438",
      "inclination" : "21.69801925008145",
      "ascending_node_longitude" : "15.45443564613709",
      "orbital_period" : "1370.508511115227",
      "perihelion_distance" : ".4140100265552183",
      "perihelion_argument" : "308.0834035781243",
      "aphelion_distance" : "4.415304993593541",
      "perihelion_time" : "2454276.132726570026",
      "mean_anomaly" : "341.4464621277558",
      "mean_motion" : ".2626762235187116",
      "equinox" : "J2000",
      "orbit_class" : {
        "orbit_class_type" : "APO",
        "orbit_class_range" : "a (semi-major axis) > 1.0 AU; q (perihelion) < 1.017 AU",
        "orbit_class_description" : "Near-Earth asteroid orbits which cross the Earth’s orbit similar to that of 1862 Apollo"
      }
    },
    "is_sentry_object" : false
  }, {
    "links" : {
      "self" : "https://api.nasa.gov/neo/rest/v1/neo/3373976?api_key=jqAGvNAwUIBu4fl9FSOjdm3V4F7hIglRzI6pdX9d"
    },
    "neo_reference_id" : "3373976",
    "name" : "(2007 GX5)",
    "designation" : "2007 GX5",
    "nasa_jpl_url" : "http://ssd.jpl.nasa.gov/sbdb.cgi?sstr=3373976",
    "absolute_magnitude_h" : 24.3,
    "estimated_diameter" : {
      "kilometers" : {
        "estimated_diameter_min" : 0.0366906138,
        "estimated_diameter_max" : 0.0820427065
      },
      "meters" : {
        "estimated_diameter_min" : 36.6906137531,
        "estimated_diameter_max" : 82.0427064882
      },
      "miles" : {
        "estimated_diameter_min" : 0.0227984834,
        "estimated_diameter_max" : 0.0509789586
      },
      "feet" : {
        "estimated_diameter_min" : 120.3760332259,
        "estimated_diameter_max" : 269.1689931548
      }
    },
    "is_potentially_hazardous_asteroid" : false,
    "close_approach_data" : [ {
      "close_approach_date" : "2007-04-09",
      "epoch_date_close_approach" : 1176102000000,
      "relative_velocity" : {
        "kilometers_per_second" : "15.6257496181",
        "kilometers_per_hour" : "56252.6986250088",
        "miles_per_hour" : "34953.2393206339"
      },
      "miss_distance" : {
        "astronomical" : "0.0214723136",
        "lunar" : "8.352730751",
        "kilometers" : "3212212.5",
        "miles" : "1995976.375"
      },
      "orbiting_body" : "Earth"
    } ],
    "orbital_data" : {
      "orbit_id" : "9",
      "orbit_determination_date" : "2017-04-06 09:06:34",
      "first_observation_date" : "2007-04-15",
      "last_observation_date" : "2007-04-24",
      "data_arc_in_days" : 9,
      "observations_used" : 52,
      "orbit_uncertainty" : "8",
      "minimum_orbit_intersection" : ".0133258",
      "jupiter_tisserand_invariant" : "4.198",
      "epoch_osculation" : "2454208.5",
      "eccentricity" : ".5585459793062134",
      "semi_major_axis" : "1.584948045185106",
      "inclination" : "1.242228944538228",
      "ascending_node_longitude" : "75.5522211800449",
      "orbital_period" : "728.8211593304163",
      "perihelion_distance" : ".6996816871377223",
      "perihelion_argument" : "41.86011436858304",
      "aphelion_distance" : "2.470214403232489",
      "perihelion_time" : "2454149.738623687945",
      "mean_anomaly" : "29.02508413967361",
      "mean_motion" : ".4939483375190969",
      "equinox" : "J2000",
      "orbit_class" : {
        "orbit_class_type" : "APO",
        "orbit_class_range" : "a (semi-major axis) > 1.0 AU; q (perihelion) < 1.017 AU",
        "orbit_class_description" : "Near-Earth asteroid orbits which cross the Earth’s orbit similar to that of 1862 Apollo"
      }
    },
    "is_sentry_object" : false
  } ]
}